1 46905U 20081A   22004.78844054  .00000953  00000-0  84966-4 0  9997
2 46905  36.8988 118.9925 0004341 152.8403 207.2564 14.98265780 63520